IRIDIUM 156             
1 43576U 18061H   26198.04812990  .00000066  00000+0  16627-4 0  9997
2 43576  86.3936  44.2377 0002127  93.4368 266.7071 14.34218044417657
IRIDIUM 164             
1 43577U 18061J   26198.02910307  .00000114  00000+0  33527-4 0  9999
2 43577  86.3938  44.2866 0002339  89.1929 270.9535 14.34218566417698
IRIDIUM 159             
1 43578U 18061K   26197.64854705  .00000040  00000+0  73658-5 0  9994
2 43578  86.3935  44.3821 0002135  85.6584 274.4856 14.34217542417609
IRIDIUM 180             
1 43922U 19002A   26197.85734900  .00000111  00000+0  32623-4 0  9995
2 43922  86.3993 341.1944 0002166  91.9110 268.2334 14.34217869393246
IRIDIUM 176             
1 43923U 19002B   26197.86099122  .00000378  00000+0  56027-4 0  9996
2 43923  86.6113 341.1322 0002334  90.3530 269.7955 14.72250262403614
IRIDIUM 168             
1 43924U 19002C   26197.50216427  .00000005  00000+0 -51329-5 0  9996
2 43924  86.3990 341.4210 0002082  90.4943 269.6492 14.34216748393176
IRIDIUM 173             
1 43925U 19002D   26197.90808992 -.00000070  00000+0 -32133-4 0  9999
2 43925  86.3987 341.1392 0002031  92.7726 267.3702 14.34217637393211
IRIDIUM 169             
1 43926U 19002E   26197.53517567  .00000050  00000+0  98432-5 0  9995
2 43926  86.4222  12.9195 0001938 104.4406 255.7007 14.38613463394446
IRIDIUM 172             
1 43927U 19002F   26197.97151641  .00000034  00000+0  49077-5 0  9994
2 43927  86.3992 341.1202 0002186  91.3558 268.7888 14.34217631393234
IRIDIUM 175             
1 43928U 19002G   26198.21970964  .00000170  00000+0  44293-4 0  9995
2 43928  86.4511 277.9680 0005408 111.5164 248.6614 14.43627862403313
IRIDIUM 171             
1 43929U 19002H   26197.88271948  .00000049  00000+0  10338-4 0  9992
2 43929  86.4001 341.4668 0002247  94.9548 265.1904 14.34217809393218
IRIDIUM 170             
1 43930U 19002J   26197.79919257  .00000380  00000+0  56411-4 0  9996
2 43930  86.6112 341.1602 0002241  87.0653 273.0821 14.72250831403610
IRIDIUM 167             
1 43931U 19002K   26197.87637683  .00000033  00000+0  46031-5 0  9999
2 43931  86.3994 341.1828 0002323  98.3388 261.8071 14.34217739393211
IRIDIUM 181             
1 56726U 23068S   26197.64077329  .00000158  00000+0  40935-4 0  9996
2 56726  86.4475  44.4730 0002411  84.5433 275.6043 14.43307687166686
IRIDIUM 177             
1 56727U 23068T   26197.59685301  .00000620  00000+0  78420-4 0  9990
2 56727  86.1986 314.8288 0002195  96.2807 263.8664 14.80025350170719
IRIDIUM 174             
1 56728U 23068U   26197.85470752  .00000390  00000+0  57962-4 0  9994
2 56728  86.6121 341.2873 0001981  89.1391 271.0053 14.72259501170385
IRIDIUM 178             
1 56729U 23068V   26197.92390630  .00000174  00000+0  19584-4 0  9997
2 56729  86.6537  12.9311 0002281  90.8170 269.3312 14.80028189170769
IRIDIUM 179             
1 56730U 23068W   26197.91855713  .00000113  00000+0  11455-4 0  9998
2 56730  86.6767  22.0004 0002350  93.6127 266.5363 14.80023255170761
