OBJECT_NAME,OBJECT_ID,EPOCH,MEAN_MOTION,ECCENTRICITY,INCLINATION,RA_OF_ASC_NODE,ARG_OF_PERICENTER,MEAN_ANOMALY,EPHEMERIS_TYPE,CLASSIFICATION_TYPE,NORAD_CAT_ID,ELEMENT_SET_NO,REV_AT_EPOCH,BSTAR,MEAN_MOTION_DOT,MEAN_MOTION_DDOT
IRIDIUM 156,2018-061H,2026-07-17T01:09:18.423360,14.34218044,.0002127,86.3936,44.2377,93.4368,266.7071,0,U,43576,999,41765,.16627E-4,.66E-6,0
IRIDIUM 164,2018-061J,2026-07-17T00:41:54.505248,14.34218566,.0002339,86.3938,44.2866,89.1929,270.9535,0,U,43577,999,41769,.33527E-4,.114E-5,0
IRIDIUM 159,2018-061K,2026-07-16T15:33:54.465120,14.34217542,.0002135,86.3935,44.3821,85.6584,274.4856,0,U,43578,999,41760,.73658E-5,.4E-6,0
IRIDIUM 180,2019-002A,2026-07-16T20:34:34.953600,14.34217869,.0002166,86.3993,341.1944,91.9110,268.2334,0,U,43922,999,39324,.32623E-4,.111E-5,0
IRIDIUM 176,2019-002B,2026-07-16T20:39:49.641408,14.72250262,.0002334,86.6113,341.1322,90.3530,269.7955,0,U,43923,999,40361,.56027E-4,.378E-5,0
IRIDIUM 168,2019-002C,2026-07-16T12:03:06.992928,14.34216748,.0002082,86.3990,341.4210,90.4943,269.6492,0,U,43924,999,39317,-.51329E-5,.5E-7,0
IRIDIUM 173,2019-002D,2026-07-16T21:47:38.969088,14.34217637,.0002031,86.3987,341.1392,92.7726,267.3702,0,U,43925,999,39321,-.32133E-4,-.7E-6,0
IRIDIUM 169,2019-002E,2026-07-16T12:50:39.177888,14.38613463,.0001938,86.4222,12.9195,104.4406,255.7007,0,U,43926,999,39444,.98432E-5,.5E-6,0
IRIDIUM 172,2019-002F,2026-07-16T23:18:59.017824,14.34217631,.0002186,86.3992,341.1202,91.3558,268.7888,0,U,43927,999,39323,.49077E-5,.34E-6,0
IRIDIUM 175,2019-002G,2026-07-17T05:16:22.912896,14.43627862,.0005408,86.4511,277.9680,111.5164,248.6614,0,U,43928,999,40331,.44293E-4,.17E-5,0
IRIDIUM 171,2019-002H,2026-07-16T21:11:06.963072,14.34217809,.0002247,86.4001,341.4668,94.9548,265.1904,0,U,43929,999,39321,.10338E-4,.49E-6,0
IRIDIUM 170,2019-002J,2026-07-16T19:10:50.238048,14.72250831,.0002241,86.6112,341.1602,87.0653,273.0821,0,U,43930,999,40361,.56411E-4,.38E-5,0
IRIDIUM 167,2019-002K,2026-07-16T21:01:58.958112,14.34217739,.0002323,86.3994,341.1828,98.3388,261.8071,0,U,43931,999,39321,.46031E-5,.33E-6,0
IRIDIUM 181,2023-068S,2026-07-16T15:22:42.812256,14.43307687,.0002411,86.4475,44.4730,84.5433,275.6043,0,U,56726,999,16668,.40935E-4,.158E-5,0
IRIDIUM 177,2023-068T,2026-07-16T14:19:28.100064,14.80025350,.0002195,86.1986,314.8288,96.2807,263.8664,0,U,56727,999,17071,.7842E-4,.62E-5,0
IRIDIUM 174,2023-068U,2026-07-16T20:30:46.729728,14.72259501,.0001981,86.6121,341.2873,89.1391,271.0053,0,U,56728,999,17038,.57962E-4,.39E-5,0
IRIDIUM 178,2023-068V,2026-07-16T22:10:25.504320,14.80028189,.0002281,86.6537,12.9311,90.8170,269.3312,0,U,56729,999,17076,.19584E-4,.174E-5,0
IRIDIUM 179,2023-068W,2026-07-16T22:02:43.336032,14.80023255,.000235,86.6767,22.0004,93.6127,266.5363,0,U,56730,999,17076,.11455E-4,.113E-5,0
